CCSDS_OMM_VERS = 2.0
CREATION_DATE  = 
ORIGINATOR     = 

OBJECT_NAME    = STARLINK-36806
OBJECT_ID      = 2026-038E
CENTER_NAME    = EARTH
REF_FRAME      = TEME
TIME_SYSTEM    = UTC
MEAN_ELEMENT_THEORY = SGP/SGP4

EPOCH          = 2026-03-17T06:56:24.229248
MEAN_MOTION    = 15.75207519
ECCENTRICITY   = .0001061
INCLINATION    = 97.2853
RA_OF_ASC_NODE = 86.9762
ARG_OF_PERICENTER = 98.2518
MEAN_ANOMALY   = 261.8868

EPHEMERIS_TYPE = 0
CLASSIFICATION_TYPE = U
NORAD_CAT_ID   = 67965
ELEMENT_SET_NO = 999
REV_AT_EPOCH   = 438
BSTAR          = .43929712E-3
MEAN_MOTION_DOT = .65951E-3
MEAN_MOTION_DDOT = 0

CCSDS_OMM_VERS = 2.0
CREATION_DATE  = 
ORIGINATOR     = 

OBJECT_NAME    = STARLINK-36820
OBJECT_ID      = 2026-038F
CENTER_NAME    = EARTH
REF_FRAME      = TEME
TIME_SYSTEM    = UTC
MEAN_ELEMENT_THEORY = SGP/SGP4

EPOCH          = 2026-03-17T05:23:24.125856
MEAN_MOTION    = 15.75220032
ECCENTRICITY   = .00012522
INCLINATION    = 97.2854
RA_OF_ASC_NODE = 86.9114
ARG_OF_PERICENTER = 100.8433
MEAN_ANOMALY   = 259.2973

EPHEMERIS_TYPE = 0
CLASSIFICATION_TYPE = U
NORAD_CAT_ID   = 67966
ELEMENT_SET_NO = 999
REV_AT_EPOCH   = 437
BSTAR          = .74064906E-3
MEAN_MOTION_DOT = .111946E-2
MEAN_MOTION_DDOT = 0

CCSDS_OMM_VERS = 2.0
CREATION_DATE  = 
ORIGINATOR     = 

OBJECT_NAME    = STARLINK-36819
OBJECT_ID      = 2026-038G
CENTER_NAME    = EARTH
REF_FRAME      = TEME
TIME_SYSTEM    = UTC
MEAN_ELEMENT_THEORY = SGP/SGP4

EPOCH          = 2026-03-17T06:00:02.000160
MEAN_MOTION    = 15.55802808
ECCENTRICITY   = .00012573
INCLINATION    = 97.2842
RA_OF_ASC_NODE = 86.8911
ARG_OF_PERICENTER = 84.7700
MEAN_ANOMALY   = 292.3729

EPHEMERIS_TYPE = 0
CLASSIFICATION_TYPE = U
NORAD_CAT_ID   = 67967
ELEMENT_SET_NO = 999
REV_AT_EPOCH   = 441
BSTAR          = -.3748732E-1
MEAN_MOTION_DOT = -.2277409E-1
MEAN_MOTION_DDOT = 0

CCSDS_OMM_VERS = 2.0
CREATION_DATE  = 
ORIGINATOR     = 

OBJECT_NAME    = STARLINK-36812
OBJECT_ID      = 2026-038H
CENTER_NAME    = EARTH
REF_FRAME      = TEME
TIME_SYSTEM    = UTC
MEAN_ELEMENT_THEORY = SGP/SGP4

EPOCH          = 2026-03-17T05:20:21.300000
MEAN_MOTION    = 15.75207745
ECCENTRICITY   = .00014457
INCLINATION    = 97.2859
RA_OF_ASC_NODE = 86.9126
ARG_OF_PERICENTER = 72.0601
MEAN_ANOMALY   = 288.0821

EPHEMERIS_TYPE = 0
CLASSIFICATION_TYPE = U
NORAD_CAT_ID   = 67968
ELEMENT_SET_NO = 999
REV_AT_EPOCH   = 437
BSTAR          = .70370227E-3
MEAN_MOTION_DOT = .106228E-2
MEAN_MOTION_DDOT = 0

CCSDS_OMM_VERS = 2.0
CREATION_DATE  = 
ORIGINATOR     = 

OBJECT_NAME    = STARLINK-36709
OBJECT_ID      = 2026-038J
CENTER_NAME    = EARTH
REF_FRAME      = TEME
TIME_SYSTEM    = UTC
MEAN_ELEMENT_THEORY = SGP/SGP4

EPOCH          = 2026-03-17T05:16:47.722656
MEAN_MOTION    = 15.75223083
ECCENTRICITY   = .00010658
INCLINATION    = 97.2860
RA_OF_ASC_NODE = 86.9161
ARG_OF_PERICENTER = 32.8675
MEAN_ANOMALY   = 327.2656

EPHEMERIS_TYPE = 0
CLASSIFICATION_TYPE = U
NORAD_CAT_ID   = 67969
ELEMENT_SET_NO = 999
REV_AT_EPOCH   = 437
BSTAR          = .91124183E-3
MEAN_MOTION_DOT = .138205E-2
MEAN_MOTION_DDOT = 0

CCSDS_OMM_VERS = 2.0
CREATION_DATE  = 
ORIGINATOR     = 

OBJECT_NAME    = STARLINK-36319
OBJECT_ID      = 2026-038K
CENTER_NAME    = EARTH
REF_FRAME      = TEME
TIME_SYSTEM    = UTC
MEAN_ELEMENT_THEORY = SGP/SGP4

EPOCH          = 2026-03-17T06:00:02.000160
MEAN_MOTION    = 15.71364923
ECCENTRICITY   = .00018787
INCLINATION    = 97.2853
RA_OF_ASC_NODE = 86.9446
ARG_OF_PERICENTER = 85.4371
MEAN_ANOMALY   = 73.5868

EPHEMERIS_TYPE = 0
CLASSIFICATION_TYPE = U
NORAD_CAT_ID   = 67970
ELEMENT_SET_NO = 999
REV_AT_EPOCH   = 438
BSTAR          = -.21445205E-1
MEAN_MOTION_DOT = -.2345636E-1
MEAN_MOTION_DDOT = 0

CCSDS_OMM_VERS = 2.0
CREATION_DATE  = 
ORIGINATOR     = 

OBJECT_NAME    = STARLINK-36710
OBJECT_ID      = 2026-038L
CENTER_NAME    = EARTH
REF_FRAME      = TEME
TIME_SYSTEM    = UTC
MEAN_ELEMENT_THEORY = SGP/SGP4

EPOCH          = 2026-03-17T05:14:15.260352
MEAN_MOTION    = 15.75229229
ECCENTRICITY   = .00011836
INCLINATION    = 97.2861
RA_OF_ASC_NODE = 86.9189
ARG_OF_PERICENTER = 81.8035
MEAN_ANOMALY   = 278.3364

EPHEMERIS_TYPE = 0
CLASSIFICATION_TYPE = U
NORAD_CAT_ID   = 67971
ELEMENT_SET_NO = 999
REV_AT_EPOCH   = 437
BSTAR          = .93240411E-3
MEAN_MOTION_DOT = .141511E-2
MEAN_MOTION_DDOT = 0

CCSDS_OMM_VERS = 2.0
CREATION_DATE  = 
ORIGINATOR     = 

OBJECT_NAME    = STARLINK-36894
OBJECT_ID      = 2026-038M
CENTER_NAME    = EARTH
REF_FRAME      = TEME
TIME_SYSTEM    = UTC
MEAN_ELEMENT_THEORY = SGP/SGP4

EPOCH          = 2026-03-17T06:44:12.437664
MEAN_MOTION    = 15.75228798
ECCENTRICITY   = .00014956
INCLINATION    = 97.2867
RA_OF_ASC_NODE = 86.9851
ARG_OF_PERICENTER = 75.1368
MEAN_ANOMALY   = 285.0063

EPHEMERIS_TYPE = 0
CLASSIFICATION_TYPE = U
NORAD_CAT_ID   = 67972
ELEMENT_SET_NO = 999
REV_AT_EPOCH   = 438
BSTAR          = .75864495E-3
MEAN_MOTION_DOT = .114752E-2
MEAN_MOTION_DDOT = 0

CCSDS_OMM_VERS = 2.0
CREATION_DATE  = 
ORIGINATOR     = 

OBJECT_NAME    = STARLINK-36900
OBJECT_ID      = 2026-038N
CENTER_NAME    = EARTH
REF_FRAME      = TEME
TIME_SYSTEM    = UTC
MEAN_ELEMENT_THEORY = SGP/SGP4

EPOCH          = 2026-03-17T06:00:02.000160
MEAN_MOTION    = 15.60690045
ECCENTRICITY   = .00017553
INCLINATION    = 97.2841
RA_OF_ASC_NODE = 86.9368
ARG_OF_PERICENTER = 74.2000
MEAN_ANOMALY   = 49.5356

EPHEMERIS_TYPE = 0
CLASSIFICATION_TYPE = U
NORAD_CAT_ID   = 67973
ELEMENT_SET_NO = 999
REV_AT_EPOCH   = 441
BSTAR          = -.31477001E-1
MEAN_MOTION_DOT = -.2298428E-1
MEAN_MOTION_DDOT = 0

CCSDS_OMM_VERS = 2.0
CREATION_DATE  = 
ORIGINATOR     = 

OBJECT_NAME    = STARLINK-36901
OBJECT_ID      = 2026-038P
CENTER_NAME    = EARTH
REF_FRAME      = TEME
TIME_SYSTEM    = UTC
MEAN_ELEMENT_THEORY = SGP/SGP4

EPOCH          = 2026-03-17T06:42:40.995360
MEAN_MOTION    = 15.75241234
ECCENTRICITY   = .00015705
INCLINATION    = 97.2867
RA_OF_ASC_NODE = 86.9862
ARG_OF_PERICENTER = 94.8864
MEAN_ANOMALY   = 265.2580

EPHEMERIS_TYPE = 0
CLASSIFICATION_TYPE = U
NORAD_CAT_ID   = 67974
ELEMENT_SET_NO = 999
REV_AT_EPOCH   = 438
BSTAR          = .94211312E-3
MEAN_MOTION_DOT = .143089E-2
MEAN_MOTION_DDOT = 0

CCSDS_OMM_VERS = 2.0
CREATION_DATE  = 
ORIGINATOR     = 

OBJECT_NAME    = STARLINK-36883
OBJECT_ID      = 2026-038Q
CENTER_NAME    = EARTH
REF_FRAME      = TEME
TIME_SYSTEM    = UTC
MEAN_ELEMENT_THEORY = SGP/SGP4

EPOCH          = 2026-03-17T06:33:37.449504
MEAN_MOTION    = 15.74653734
ECCENTRICITY   = .00010011
INCLINATION    = 97.2871
RA_OF_ASC_NODE = 86.9928
ARG_OF_PERICENTER = 77.1346
MEAN_ANOMALY   = 283.0030

EPHEMERIS_TYPE = 0
CLASSIFICATION_TYPE = U
NORAD_CAT_ID   = 67975
ELEMENT_SET_NO = 999
REV_AT_EPOCH   = 438
BSTAR          = -.44520545E-2
MEAN_MOTION_DOT = -.604925E-2
MEAN_MOTION_DDOT = 0

CCSDS_OMM_VERS = 2.0
CREATION_DATE  = 
ORIGINATOR     = 

OBJECT_NAME    = STARLINK-36880
OBJECT_ID      = 2026-038R
CENTER_NAME    = EARTH
REF_FRAME      = TEME
TIME_SYSTEM    = UTC
MEAN_ELEMENT_THEORY = SGP/SGP4

EPOCH          = 2026-03-17T06:00:02.000160
MEAN_MOTION    = 15.56990208
ECCENTRICITY   = .00015417
INCLINATION    = 97.2843
RA_OF_ASC_NODE = 86.9207
ARG_OF_PERICENTER = 77.6324
MEAN_ANOMALY   = 11.1790

EPHEMERIS_TYPE = 0
CLASSIFICATION_TYPE = U
NORAD_CAT_ID   = 67976
ELEMENT_SET_NO = 999
REV_AT_EPOCH   = 441
BSTAR          = -.36084242E-1
MEAN_MOTION_DOT = -.2289988E-1
MEAN_MOTION_DDOT = 0

