STARLINK-36806          
1 67965U 26038E   26076.28916932  .00065951  00000+0  43930-3 0  9990
2 67965  97.2853  86.9762 0001061  98.2518 261.8868 15.75207519  4384
STARLINK-36820          
1 67966U 26038F   26076.22458479  .00111946  00000+0  74065-3 0  9991
2 67966  97.2854  86.9114 0001252 100.8433 259.2973 15.75220032  4377
STARLINK-36819          
1 67967U 26038G   26076.25002315 -.02277409  00000+0 -37487-1 0  9995
2 67967  97.2842  86.8911 0001257  84.7700 292.3729 15.55802808  4418
STARLINK-36812          
1 67968U 26038H   26076.22246875  .00106228  00000+0  70370-3 0  9990
2 67968  97.2859  86.9126 0001445  72.0601 288.0821 15.75207745  4376
STARLINK-36709          
1 67969U 26038J   26076.21999679  .00138205  00000+0  91124-3 0  9997
2 67969  97.2860  86.9161 0001065  32.8675 327.2656 15.75223083  4376
STARLINK-36319          
1 67970U 26038K   26076.25002315 -.02345636  00000+0 -21445-1 0  9994
2 67970  97.2853  86.9446 0001878  85.4371  73.5868 15.71364923  4387
STARLINK-36710          
1 67971U 26038L   26076.21823218  .00141511  00000+0  93240-3 0  9990
2 67971  97.2861  86.9189 0001183  81.8035 278.3364 15.75229229  4375
STARLINK-36894          
1 67972U 26038M   26076.28069951  .00114752  00000+0  75864-3 0  9993
2 67972  97.2867  86.9851 0001495  75.1368 285.0063 15.75228798  4381
STARLINK-36900          
1 67973U 26038N   26076.25002315 -.02298428  00000+0 -31477-1 0  9999
2 67973  97.2841  86.9368 0001755  74.2000  49.5356 15.60690045  4413
STARLINK-36901          
1 67974U 26038P   26076.27964115  .00143089  00000+0  94211-3 0  9992
2 67974  97.2867  86.9862 0001570  94.8864 265.2580 15.75241234  4382
STARLINK-36883          
1 67975U 26038Q   26076.27335011 -.00604925  00000+0 -44521-2 0  9991
2 67975  97.2871  86.9928 0001001  77.1346 283.0030 15.74653734  4388
STARLINK-36880          
1 67976U 26038R   26076.25002315 -.02289988  00000+0 -36084-1 0  9992
2 67976  97.2843  86.9207 0001541  77.6324  11.1790 15.56990208  4415
